{"fetched_at":"2026-07-21T17:53:53.141Z","source":"https://celestrak.org/NORAD/elements/gp.php?NAME=SPOT&FORMAT=JSON","constellation":"spot","records":[{"OBJECT_NAME":"SPOT 6","OBJECT_ID":"2012-047A","EPOCH":"2026-07-21T07:02:10.091904","CLASSIFICATION_TYPE":"U","MEAN_MOTION":14.58540183,"ECCENTRICITY":0.00011129,"INCLINATION":98.2098,"RA_OF_ASC_NODE":269.1997,"ARG_OF_PERICENTER":93.6547,"MEAN_ANOMALY":266.4779,"EPHEMERIS_TYPE":0,"NORAD_CAT_ID":38755,"ELEMENT_SET_NO":999,"REV_AT_EPOCH":73802,"BSTAR":0.000001805272,"MEAN_MOTION_DOT":-3.7e-7,"MEAN_MOTION_DDOT":0},{"OBJECT_NAME":"SPOT 7","OBJECT_ID":"2014-034A","EPOCH":"2026-07-21T06:55:51.123360","CLASSIFICATION_TYPE":"U","MEAN_MOTION":14.60983738,"ECCENTRICITY":0.00016456,"INCLINATION":98.0606,"RA_OF_ASC_NODE":263.8988,"ARG_OF_PERICENTER":95.16,"MEAN_ANOMALY":264.9789,"EPHEMERIS_TYPE":0,"NORAD_CAT_ID":40053,"ELEMENT_SET_NO":999,"REV_AT_EPOCH":64211,"BSTAR":0.000034737088,"MEAN_MOTION_DOT":0.00000125,"MEAN_MOTION_DDOT":0}]}
